NORAD_CAT_ID,OBJECT_NAME,OBJECT_TYPE,EPOCH,MEAN_MOTION,ECCENTRICITY,INCLINATION,RA_OF_ASC_NODE,ARG_OF_PERICENTER,MEAN_ANOMALY,BSTAR,MEAN_MOTION_DOT,MEAN_MOTION_DDOT,TLE_LINE0,TLE_LINE1,TLE_LINE2,SEMIMAJOR_AXIS,PERIOD,APOGEE,PERIGEE,DECAYED
55764.0,STARLINK-5499,PAYLOAD,2024-05-06 04:12:26,14.98328213,0.0003096,69.9986,120.2411,270.7543,89.3261,8.7941e-05,9.56e-06,0.0,0 STARLINK-5499,1 55764U 23028Z   24127.17530743  .00000956  00000-0  87941-4 0  9991,2 55764  69.9986 120.2411 0003096 270.7543  89.3261 14.98328213 65790,6950.198,96.107,574.215,569.912,0.0
55764.0,STARLINK-5499,PAYLOAD,2024-05-06 09:00:50,14.98330051,0.0003087,69.9986,119.7362,270.7508,89.3297,9.657e-05,1.059e-05,0.0,0 STARLINK-5499,1 55764U 23028Z   24127.37558621  .00001059  00000-0  96570-4 0  9991,2 55764  69.9986 119.7362 0003087 270.7508  89.3297 14.98330051 65825,6950.193,96.107,574.203,569.912,0.0
55764.0,STARLINK-5499,PAYLOAD,2024-05-06 17:01:30,14.98331819,0.000307,69.9987,118.8945,270.4431,89.6376,0.00010133,1.116e-05,0.0,0 STARLINK-5499,1 55764U 23028Z   24127.70938514  .00001116  00000-0  10133-3 0  9995,2 55764  69.9987 118.8945 0003070 270.4431  89.6376 14.98331819 65876,6950.187,96.107,574.186,569.919,0.0
55764.0,STARLINK-5499,PAYLOAD,2024-05-07 04:14:27,14.98334302,0.0003076,69.9986,117.7161,270.0613,90.0194,9.3641e-05,1.025e-05,0.0,0 STARLINK-5499,1 55764U 23028Z   24128.17670304  .00001025  00000-0  93641-4 0  9992,2 55764  69.9986 117.7161 0003076 270.0613  90.0194 14.98334302 65949,6950.18,96.107,574.182,569.907,0.0
55764.0,STARLINK-5499,PAYLOAD,2024-05-07 09:02:51,14.98335922,0.0003066,69.9986,117.2109,269.5436,90.5372,0.00010637,1.177e-05,0.0,0 STARLINK-5499,1 55764U 23028Z   24128.37698106  .00001177  00000-0  10637-3 0  9995,2 55764  69.9986 117.2109 0003066 269.5436  90.5372 14.98335922 65976,6950.175,96.107,574.171,569.909,0.0
55764.0,STARLINK-5499,PAYLOAD,2024-05-07 17:03:31,14.98332523,0.0003047,69.9986,116.3689,269.5096,90.5714,4.315e-05,4.22e-06,0.0,0 STARLINK-5499,1 55764U 23028Z   24128.71078379  .00000422  00000-0  43150-4 0  9996,2 55764  69.9986 116.3689 0003047 269.5096  90.5714 14.98332523 66021,6950.185,96.107,574.168,569.932,0.0
55764.0,STARLINK-5499,PAYLOAD,2024-05-08 04:16:28,14.9833219,0.0003039,69.9987,115.1907,269.3021,90.7789,3.9397e-07,-8.8e-07,0.0,0 STARLINK-5499,1 55764U 23028Z   24129.17810435 -.00000088  00000-0  39397-6 0  9993,2 55764  69.9987 115.1907 0003039 269.3021  90.7789 14.98332190 66090,6950.186,96.107,574.163,569.939,0.0
55764.0,STARLINK-5499,PAYLOAD,2024-05-08 09:04:52,14.98333036,0.0003052,69.9987,114.686,269.911,90.1699,7.9141e-06,1e-08,0.0,0 STARLINK-5499,1 55764U 23028Z   24129.37838324  .00000001  00000-0  79141-5 0  9996,2 55764  69.9987 114.6860 0003052 269.9110  90.1699 14.98333036 66120,6950.184,96.107,574.17,569.927,0.0
55764.0,STARLINK-5499,PAYLOAD,2024-05-09 09:06:52,14.9833878,0.0003041,69.9988,112.161,270.1617,89.9194,3.0037e-05,2.65e-06,0.0,0 STARLINK-5499,1 55764U 23028Z   24130.37977586  .00000265  00000-0  30037-4 0  9994,2 55764  69.9988 112.1610 0003041 270.1617  89.9194 14.98338780 66274,6950.166,96.106,574.144,569.917,0.0
55764.0,STARLINK-5499,PAYLOAD,2024-05-09 15:31:25,14.98332426,0.0002985,69.9991,111.4877,270.6794,89.4023,1.6508e-06,-7.3e-07,0.0,0 STARLINK-5499,1 55764U 23028Z   24130.64682011 -.00000073  00000-0  16508-5 0  9996,2 55764  69.9991 111.4877 0002985 270.6794  89.4023 14.98332426 66314,6950.185,96.107,574.125,569.976,0.0
55764.0,STARLINK-5499,PAYLOAD,2024-05-10 07:32:45,14.98331082,0.0002942,69.9991,109.8046,270.6196,89.4625,4.2234e-05,4.11e-06,0.0,0 STARLINK-5499,1 55764U 23028Z   24131.31442011  .00000411  00000-0  42234-4 0  9994,2 55764  69.9991 109.8046 0002942 270.6196  89.4625 14.98331082 66418,6950.19,96.107,574.099,570.01,0.0
55764.0,STARLINK-5499,PAYLOAD,2024-05-10 15:33:26,14.98330617,0.0002933,69.9992,108.963,270.6905,89.3918,2.1809e-05,1.67e-06,0.0,0 STARLINK-5499,1 55764U 23028Z   24131.64822094  .00000167  00000-0  21809-4 0  9996,2 55764  69.9992 108.9630 0002933 270.6905  89.3918 14.98330617 66468,6950.191,96.107,574.094,570.017,0.0
55764.0,STARLINK-5499,PAYLOAD,2024-05-11 07:34:45,14.9834644,0.0002603,69.9996,107.281,266.1281,93.9581,0.00016989,1.936e-05,0.0,0 STARLINK-5499,1 55764U 23028Z   24132.31580735  .00001936  00000-0  16989-3 0  9991,2 55764  69.9996 107.2810 0002603 266.1281  93.9581 14.98346440 66564,6950.142,96.106,573.816,570.198,0.0
55764.0,STARLINK-5499,PAYLOAD,2024-05-11 21:59:57,14.98345917,0.0002285,70.0014,105.767,257.5645,102.5258,0.00016024,1.82e-05,0.0,0 STARLINK-5499,1 55764U 23028Z   24132.91664262  .00001820  00000-0  16024-3 0  9997,2 55764  70.0014 105.7670 0002285 257.5645 102.5258 14.98345917 66655,6950.144,96.106,573.597,570.421,0.0
55764.0,STARLINK-5499,PAYLOAD,2024-05-12 04:24:35,14.9827909,0.0002621,69.9996,105.0918,260.8038,99.2824,-0.00051383,-6.21e-05,0.0,0 STARLINK-5499,1 55764U 23028Z   24133.18374227 -.00006210  00000-0 -51383-3 0  9993,2 55764  69.9996 105.0918 0002621 260.8038  99.2824 14.98279090 66699,6950.35,96.11,574.037,570.394,0.0
55764.0,STARLINK-5499,PAYLOAD,2024-05-12 07:36:52,14.98275458,0.0002831,69.999,104.7544,261.6236,98.4602,-0.00053408,-6.451e-05,0.0,0 STARLINK-5499,1 55764U 23028Z   24133.31726858 -.00006451  00000-0 -53408-3 0  9996,2 55764  69.9990 104.7544 0002831 261.6236  98.4602 14.98275458 66718,6950.362,96.11,574.194,570.259,0.0
55764.0,STARLINK-5499,PAYLOAD,2024-05-12 15:37:32,14.9828526,0.0002556,70.0011,103.914,266.2828,93.8039,-0.00039479,-4.795e-05,0.0,0 STARLINK-5499,1 55764U 23028Z   24133.65106900 -.00004795  00000-0 -39479-3 0  9994,2 55764  70.0011 103.9140 0002556 266.2828  93.8039 14.98285260 66760,6950.331,96.11,573.973,570.42,0.0
55764.0,STARLINK-5499,PAYLOAD,2024-05-12 22:02:04,14.98290182,0.0003887,69.9999,103.2411,264.4162,95.6553,-0.00036296,-4.417e-05,0.0,0 STARLINK-5499,1 55764U 23028Z   24133.91810653 -.00004417  00000-0 -36296-3 0  9995,2 55764  69.9999 103.2411 0003887 264.4162  95.6553 14.98290182 66800,6950.316,96.11,574.883,569.479,0.0
55764.0,STARLINK-5499,PAYLOAD,2024-05-13 04:26:34,14.98321791,0.0002341,69.9999,102.5647,244.7546,115.337,-1.5239e-05,-2.75e-06,0.0,0 STARLINK-5499,1 55764U 23028Z   24134.18512333 -.00000275  00000-0 -15239-4 0  9992,2 55764  69.9999 102.5647 0002341 244.7546 115.3370 14.98321791 66846,6950.218,96.108,573.71,570.456,0.0
55764.0,STARLINK-5499,PAYLOAD,2024-05-13 07:38:50,14.98327996,0.0002801,69.9993,102.2304,261.5368,98.5474,-3.4301e-05,-5.02e-06,0.0,0 STARLINK-5499,1 55764U 23028Z   24134.31864026 -.00000502  00000-0 -34301-4 0  9990,2 55764  69.9993 102.2304 0002801 261.5368  98.5474 14.98327996 66869,6950.199,96.107,574.011,570.117,0.0
55764.0,STARLINK-5499,PAYLOAD,2024-05-13 15:39:30,14.9833676,0.0002855,69.9994,101.3883,267.5958,92.4874,-0.00010028,-1.289e-05,0.0,0 STARLINK-5499,1 55764U 23028Z   24134.65243643 -.00001289  00000-0 -10028-3 0  9995,2 55764  69.9994 101.3883 0002855 267.5958  92.4874 14.98336760 66914,6950.172,96.107,574.021,570.053,0.0
55764.0,STARLINK-5499,PAYLOAD,2024-05-13 22:04:02,14.98329307,0.0003007,69.9991,100.7149,268.3126,91.7688,0.00010552,1.166e-05,0.0,0 STARLINK-5499,1 55764U 23028Z   24134.91947714  .00001166  00000-0  10552-3 0  9998,2 55764  69.9991 100.7149 0003007 268.3126  91.7688 14.98329307 66953,6950.195,96.107,574.15,569.97,0.0
55764.0,STARLINK-5499,PAYLOAD,2024-05-14 07:40:51,14.98333088,0.0002975,69.9992,99.7049,268.1255,91.9563,0.00016094,1.828e-05,0.0,0 STARLINK-5499,1 55764U 23028Z   24135.32003550  .00001828  00000-0  16094-3 0  9997,2 55764  69.9992  99.7049 0002975 268.1255  91.9563 14.98333088 67017,6950.183,96.107,574.116,569.981,0.0
55764.0,STARLINK-5499,PAYLOAD,2024-05-14 22:06:04,14.9832997,0.0002884,69.9992,98.1901,264.0244,96.0587,0.00044334,5.201e-05,0.0,0 STARLINK-5499,1 55764U 23028Z   24135.92087987  .00005201  00000-0  44334-3 0  9996,2 55764  69.9992  98.1901 0002884 264.0244  96.0587 14.98329970 67106,6950.193,96.107,574.062,570.054,0.0
55764.0,STARLINK-5499,PAYLOAD,2024-05-15 04:30:35,14.98347714,0.0003013,69.9992,97.5168,264.8927,95.1889,0.00028814,3.348e-05,0.0,0 STARLINK-5499,1 55764U 23028Z   24136.18791184  .00003348  00000-0  28814-3 0  9991,2 55764  69.9992  97.5168 0003013 264.8927  95.1889 14.98347714 67140,6950.138,96.106,574.097,569.909,0.0
55764.0,STARLINK-5499,PAYLOAD,2024-05-15 07:42:51,14.98351325,0.0002988,69.9993,97.18,264.6929,95.3889,0.00033932,3.96e-05,0.0,0 STARLINK-5499,1 55764U 23028Z   24136.32142867  .00003960  00000-0  33932-3 0  9992,2 55764  69.9993  97.1800 0002988 264.6929  95.3889 14.98351325 67167,6950.127,96.106,574.069,569.915,0.0
55764.0,STARLINK-5499,PAYLOAD,2024-05-15 22:08:01,14.98375885,0.0003499,69.998,95.6616,267.4488,92.627,0.00040774,4.781e-05,0.0,0 STARLINK-5499,1 55764U 23028Z   24136.92223777  .00004781  00000-0  40774-3 0  9992,2 55764  69.9980  95.6616 0003499 267.4488  92.6270 14.98375885 67251,6950.051,96.104,574.348,569.484,0.0
55764.0,STARLINK-5499,PAYLOAD,2024-05-16 04:32:35,14.98343028,0.0002963,70.0006,94.9918,270.6107,89.4712,-0.000147,-1.847e-05,0.0,0 STARLINK-5499,1 55764U 23028Z   24137.18929731 -.00001847  00000-0 -14700-3 0  9996,2 55764  70.0006  94.9918 0002963 270.6107  89.4712 14.98343028 67292,6950.153,96.106,574.077,569.958,0.0
55764.0,STARLINK-5499,PAYLOAD,2024-05-16 14:09:22,14.98348927,0.0003107,70.0004,93.9811,269.0726,91.0077,-0.00032788,-4.005e-05,0.0,0 STARLINK-5499,1 55764U 23028Z   24137.58984559 -.00004005  00000-0 -32788-3 0  9994,2 55764  70.0004  93.9811 0003107 269.0726  91.0077 14.98348927 67354,6950.134,96.106,574.159,569.84,0.0
55764.0,STARLINK-5499,PAYLOAD,2024-05-17 14:11:24,14.98324873,0.0002509,70.0008,91.4563,274.2079,85.8793,0.00050302,5.913e-05,0.0,0 STARLINK-5499,1 55764U 23028Z   24138.59125076  .00005913  00000-0  50302-3 0  9996,2 55764  70.0008  91.4563 0002509 274.2079  85.8793 14.98324873 67506,6950.209,96.107,573.818,570.33,0.0
